{
    "links": {
        "self": "http://www.neowsapp.com/rest/v1/neo/3709285?api_key=iIulBulltgU6a56xZRHN4H3l9WmuAYTsLGpBGhQ2"
    },
    "id": "3709285",
    "neo_reference_id": "3709285",
    "name": "(2015 BP513)",
    "designation": "2015 BP513",
    "nasa_jpl_url": "http://ssd.jpl.nasa.gov/sbdb.cgi?sstr=3709285",
    "absolute_magnitude_h": 26.7,
    "estimated_diameter": {
        "kilometers": {
            "estimated_diameter_min": 0.0121494041,
            "estimated_diameter_max": 0.0271668934
        },
        "meters": {
            "estimated_diameter_min": 12.14940408,
            "estimated_diameter_max": 27.1668934089
        },
        "miles": {
            "estimated_diameter_min": 0.0075492874,
            "estimated_diameter_max": 0.0168807197
        },
        "feet": {
            "estimated_diameter_min": 39.8602508817,
            "estimated_diameter_max": 89.1302305717
        }
    },
    "is_potentially_hazardous_asteroid": false,
    "close_approach_data": [
        {
            "close_approach_date": "2003-02-20",
            "close_approach_date_full": "2003-Feb-20 20:03",
            "epoch_date_close_approach": 1045771380000,
            "relative_velocity": {
                "kilometers_per_second": "17.6362338816",
                "kilometers_per_hour": "63490.4419736153",
                "miles_per_hour": "39450.4915696611"
            },
            "miss_distance": {
                "astronomical": "0.3182080545",
                "lunar": "123.7829332005",
                "kilometers": "47603247.170043915",
                "miles": "29579286.181739427"
            },
            "orbiting_body": "Earth"
        },
        {
            "close_approach_date": "2015-01-18",
            "close_approach_date_full": "2015-Jan-18 13:36",
            "epoch_date_close_approach": 1421588160000,
            "relative_velocity": {
                "kilometers_per_second": "8.750518049",
                "kilometers_per_hour": "31501.8649765445",
                "miles_per_hour": "19574.0338238979"
            },
            "miss_distance": {
                "astronomical": "0.0008241186",
                "lunar": "0.3205821354",
                "kilometers": "123286.387187382",
                "miles": "76606.6087025916"
            },
            "orbiting_body": "Moon"
        },
        {
            "close_approach_date": "2015-01-18",
            "close_approach_date_full": "2015-Jan-18 17:09",
            "epoch_date_close_approach": 1421600940000,
            "relative_velocity": {
                "kilometers_per_second": "7.7535085668",
                "kilometers_per_hour": "27912.630840314",
                "miles_per_hour": "17343.8233129718"
            },
            "miss_distance": {
                "astronomical": "0.0015986913",
                "lunar": "0.6218909157",
                "kilometers": "239160.813267531",
                "miles": "148607.6383366878"
            },
            "orbiting_body": "Earth"
        },
        {
            "close_approach_date": "2019-11-25",
            "close_approach_date_full": "2019-Nov-25 08:59",
            "epoch_date_close_approach": 1574672340000,
            "relative_velocity": {
                "kilometers_per_second": "11.1664024225",
                "kilometers_per_hour": "40199.0487210554",
                "miles_per_hour": "24978.1255789247"
            },
            "miss_distance": {
                "astronomical": "0.0884492909",
                "lunar": "34.4067741601",
                "kilometers": "13231825.521650383",
                "miles": "8221875.1257379654"
            },
            "orbiting_body": "Mars"
        }
    ],
    "orbital_data": {
        "orbit_id": "4",
        "orbit_determination_date": "2017-04-06 08:35:57",
        "first_observation_date": "2015-01-19",
        "last_observation_date": "2015-01-29",
        "data_arc_in_days": 10,
        "observations_used": 15,
        "orbit_uncertainty": "7",
        "minimum_orbit_intersection": ".000493337",
        "jupiter_tisserand_invariant": "4.034",
        "epoch_osculation": "2459000.5",
        "eccentricity": ".4543658801381674",
        "semi_major_axis": "1.730369660346041",
        "inclination": ".4891349604735748",
        "ascending_node_longitude": "115.5150929205919",
        "orbital_period": "831.3937674325679",
        "perihelion_distance": ".9441487266585306",
        "perihelion_argument": "333.6997050425373",
        "aphelion_distance": "2.516590594033552",
        "perihelion_time": "2458680.985958643079",
        "mean_anomaly": "138.3520774322149",
        "mean_motion": ".4330078166350924",
        "equinox": "J2000",
        "orbit_class": {
            "orbit_class_type": "APO",
            "orbit_class_description": "Near-Earth asteroid orbits which cross the Earth’s orbit similar to that of 1862 Apollo",
            "orbit_class_range": "a (semi-major axis) > 1.0 AU; q (perihelion) < 1.017 AU"
        }
    },
    "is_sentry_object": false
}